{"fetched_at":"2026-03-29T02:12:04Z","count":15717,"tles":[{"name":"STARLINK-31688","line1":"1 59386U 24062N   26087.49829820  .00000357  00000+0  24170-4 0  9992","line2":"2 59386  53.1609 170.9588 0001070  79.4939 280.6182 15.30195517112473","category":"Starlink"}]}